satname,norad_id,inclination_deg,eccentricity,mean_motion_rev_per_day,perigee_km,apogee_km,l1,l2
STARLINK-1422,45696,53.1578,0.0003196,15.34306986,460.79329048220916,465.16613228412643,1 45696U 20035AR  26152.04204767  .00051768  00000+0  15371-2 0  9991,2 45696  53.1578  21.5981 0003196 127.2807 232.8487 15.34306986331740
STARLINK-1351,45697,53.0443,0.0003941,15.65920797,367.93218439937664,373.2515324856013,1 45697U 20035AS  26153.74720205  .00049743  00000+0  48154-3 0  9996,2 45697  53.0443 327.4301 0003941 131.2500 228.8854 15.65920797332647
STARLINK-1400,45700,53.0434,0.0001907,15.64694074,372.83108632586664,375.4063966656731,1 45700U 20035AV  26153.94887681  .00056530  00000+0  57350-3 0  9995,2 45700  53.0434 328.9609 0001907  66.2032 293.9182 15.64694074332637
STARLINK-1403,45701,53.1555,0.0003164,15.33439154,463.39522220582694,467.7259140269307,1 45701U 20035AW  26153.74499796  .00024092  00000+0  74403-3 0  9996,2 45701  53.1555   1.1449 0003164 164.5913 195.5186 15.33439154332174
STARLINK-1407,45703,53.0278,0.0005451,15.72997749,346.66717206331305,354.0025520873478,1 45703U 20035AY  26152.56680523  .00070593  00000+0  50709-3 0  9997,2 45703  53.0278 262.7093 0005451  13.2229 346.8931 15.72997749333440
STARLINK-1411,45706,53.0307,0.0008461,15.8933162,298.5017701859988,309.80954582187314,1 45706U 20035BB  26154.00002315  .00288113  41275-4  97989-3 0  9992,2 45706  53.0307 277.5171 0008461 325.3703 331.1085 15.89331620  6021
STARLINK-1423,45710,53.0438,0.0005927,15.68528109,359.1154558927983,367.1065312643859,1 45710U 20035BF  26153.76536908  .00009943  00000+0  91059-4 0  9990,2 45710  53.0438 326.4534 0005927 103.0421 257.1257 15.68528109332645
STARLINK-1433,45711,53.0441,0.0005723,15.68149024,360.3387332542916,368.0560091755833,1 45711U 20035BG  26153.94061915  .00057501  00000+0  50729-3 0  9993,2 45711  53.0441 324.1733 0005723  90.7682 269.3990 15.68149024332690
STARLINK-1434,45712,53.0517,0.000201,15.3396211,462.6297806152761,465.3803217198447,1 45712U 20035BH  26153.78710891  .00049241  00000+0  14792-2 0  9991,2 45712  53.0517 343.5915 0002010  75.3194 284.8030 15.33962110332424
STARLINK-1465,45731,53.0426,0.0001629,15.65384407,371.03381769718817,373.23305580548185,1 45731U 20038B   26153.31147479  .00046363  00000+0  45920-3 0  9990,2 45731  53.0426 172.8068 0001629  67.5000 292.6187 15.65384407329563
STARLINK-1471,45735,53.0447,0.0003146,15.5320532,405.2398433688477,409.50928724573987,1 45735U 20038F   26153.11640228  .00030551  00000+0  48336-3 0  9998,2 45735  53.0447  96.1657 0003146 100.9252 259.2111 15.53205320330638
STARLINK-1480,45741,53.046,0.0006317,15.64769433,369.63668517893893,378.1672111860735,1 45741U 20038M   26153.28940239  .00048608  00000+0  49253-3 0  9999,2 45741  53.0460 166.5362 0006317  16.2136 343.9079 15.64769433329665
STARLINK-1500,45744,53.0337,0.0002028,15.38919918,447.91737837765686,450.6865876291631,1 45744U 20038Q   26153.27656893  .00026647  00000+0  68932-3 0  9995,2 45744  53.0337 154.6425 0002028 104.7856 255.3372 15.38919918329822
STARLINK-1504,45746,53.0199,0.0003632,15.58699776,388.9604132324348,393.8778187951066,1 45746U 20038S   26153.91983770  .00036562  00000+0  47088-3 0  9991,2 45746  53.0199  89.2313 0003632  88.5855 271.5573 15.58699776330788
STARLINK-1506,45747,53.0725,0.0002673,15.28222579,479.2921766708632,482.95913848760483,1 45747U 20038T   26153.33657319  .00008178  00000+0  30572-3 0  9997,2 45747  53.0725 170.1501 0002673 148.6425 211.4734 15.28222579329621
STARLINK-1464,45751,53.0447,0.0004506,15.5382843,402.5036443777544,408.6171124551829,1 45751U 20038X   26153.27444651  .00030740  00000+0  47539-3 0  9999,2 45751  53.0447 159.2411 0004506  22.6021 337.5186 15.53828430329767
STARLINK-1477,45754,53.0495,0.0001338,15.18656797,508.97750063390504,510.82073909958035,1 45754U 20038AA  26153.31786115  .00030610  00000+0  14682-2 0  9999,2 45754  53.0495 187.0152 0001338 346.7422  13.3537 15.18656797329371
STARLINK-1478,45755,53.0437,0.0005006,15.67769459,361.9098057174251,368.66132038755404,1 45755U 20038AB  26153.27865914  .00058027  00000+0  51992-3 0  9998,2 45755  53.0437 144.5442 0005006  55.3207 304.8280 15.67769459329959
STARLINK-1493,45759,53.0451,0.0007071,15.64544523,369.7741981405952,379.32384671351247,1 45759U 20038AF  26153.92853684  .00099662  00000+0  10065-2 0  9990,2 45759  53.0451 150.9090 0007071  14.2442 345.8771 15.64544523329925
STARLINK-1494,45760,53.0371,0.0001597,16.05514613,258.1165465817621,260.2365045218239,1 45760U 20038AG  26153.95765800  .00524762  14196-3  72460-3 0  9994,2 45760  53.0371  80.0204 0001597 150.7093 209.4029 16.05514613330929
STARLINK-1502,45764,53.0439,0.0005775,15.60671254,381.8108104711164,389.62306176733364,1 45764U 20038AL  26153.26503745  .00083068  00000+0  97890-3 0  9998,2 45764  53.0439 157.8220 0005775 343.4799  16.6024 15.60671254329785
STARLINK-1470,45772,53.0415,0.0004109,15.34805024,458.68928154885543,464.3100949792715,1 45772U 20038AU  26153.24599121  .00050705  00000+0  14822-2 0  9993,2 45772  53.0415 139.6952 0004109  18.2626 341.8522 15.34805024330035
STARLINK-1482,45773,53.1572,0.0006773,15.37281847,449.5236585567409,458.77867610820886,1 45773U 20038AV  26153.33023768  .00028165  00000+0  76719-3 0  9992,2 45773  53.1572 155.7555 0006773  13.3286 346.7896 15.37281847329834
STARLINK-1496,45780,53.0453,8.67e-05,15.68092947,363.77353890407085,364.9426875567051,1 45780U 20038BC  26154.00002315 -.00037634  00000+0 -32843-3 0  9993,2 45780  53.0453 125.0192 0000867  94.7052 102.2964 15.68092947  5958
STARLINK-1513,45786,53.1595,0.0001373,15.31685957,469.8415004386761,471.7222135568072,1 45786U 20038BJ  26153.22575292  .00004221  00000+0  14778-3 0  9992,2 45786  53.1595 157.9688 0001373  77.0001 283.1154 15.31685957329797
STARLINK-1522,46027,53.0629,0.0003321,15.12842363,525.2433711011945,529.8301196028578,1 46027U 20055A   26153.14703541  .00032988  00000+0  18634-2 0  9996,2 46027  53.0629 104.7005 0003321  35.7851 324.3363 15.12842363321657
STARLINK-1523,46028,53.1624,0.0001221,15.30320202,474.0194409375972,475.6929418749396,1 46028U 20055B   26153.10472867  .00014789  00000+0  50858-3 0  9991,2 46028  53.1624  94.6031 0001221  93.9431 266.1709 15.30320202321826
STARLINK-1526,46029,53.161,0.0001194,15.30193102,474.41737298503995,476.05395837760534,1 46029U 20055C   26153.09857626  .00002161  00000+0  85086-4 0  9993,2 46029  53.1610  94.6414 0001194  97.2981 262.8155 15.30193102321817
STARLINK-1555,46032,53.1605,0.0001321,15.30189895,474.33990949985036,476.1505730879999,1 46032U 20055F   26153.14808918  .00003530  00000+0  13128-3 0  9991,2 46032  53.1605  94.3943 0001321 114.0017 246.1122 15.30189895321823
STARLINK-1556,46033,53.1591,0.000206,15.30196874,473.81261065870785,476.63619555678815,1 46033U 20055G   26153.13123807  .00003548  00000+0  13188-3 0  9993,2 46033  53.1591  94.4945 0002060  45.4727 314.6441 15.30196874321793
STARLINK-1557,46034,53.1597,0.0001149,15.30194118,474.4451798966211,476.02008423807,1 46034U 20055H   26153.13439548  .00003221  00000+0  12085-3 0  9999,2 46034  53.1597  94.4626 0001149  84.6069 275.5063 15.30194118321791
STARLINK-1558,46035,53.1606,0.0002408,15.30201212,473.56116430127076,476.8617369150834,1 46035U 20055J   26153.92553835  .00002228  00000+0  87353-4 0  9990,2 46035  53.1606  90.7839 0002408 144.6167 215.4994 15.30201212321940
STARLINK-1560,46036,53.1596,0.0001152,15.30190021,474.45535548566477,476.03437466737887,1 46036U 20055K   26153.12807475  .00001183  00000+0  52090-4 0  9994,2 46036  53.1596  94.5104 0001152  81.3936 278.7196 15.30190021321820
STARLINK-1569,46039,53.1594,0.0001418,15.30154217,474.37994790535595,476.3235973212686,1 46039U 20055N   26153.47151033 -.00001231  00000+0 -29497-4 0  9998,2 46039  53.1594  92.8958 0001418 102.7704 257.3456 15.30154217321868
STARLINK-1582,46043,53.1604,0.000124,15.31697732,469.8974944382262,471.59601760971964,1 46043U 20055S   26153.10252537  .00000292  00000+0  21171-4 0  9999,2 46043  53.1604  94.0793 0001240  91.1257 268.9887 15.31697732321819
STARLINK-1591,46045,53.1605,0.0001256,15.30189669,474.38513120243715,476.10670099096023,1 46045U 20055U   26153.11227167  .00005215  00000+0  18815-3 0  9993,2 46045  53.1605  94.5696 0001256  93.5274 266.5871 15.30189669321799
STARLINK-1524,46047,53.1606,0.0001554,15.31707549,469.65318015380944,471.7818041299661,1 46047U 20055W   26153.07184256  .00005082  00000+0  17538-3 0  9994,2 46047  53.1606  81.5113 0001554 135.8276 224.2850 15.31707549321999
STARLINK-1527,46048,53.1605,0.0001161,15.31722344,469.8782428477716,471.4685366202675,1 46048U 20055X   26152.08842301  .00014103  00000+0  46505-3 0  9997,2 46048  53.1605  86.0799 0001161 101.0914 259.0219 15.31722344321813
STARLINK-1540,46051,53.1617,0.0001096,15.31700765,469.98707813266174,471.488351470146,1 46051U 20055AA  26153.11848249  .00001154  00000+0  48956-4 0  9998,2 46051  53.1617  81.4922 0001096  85.7077 274.4050 15.31700765322012
STARLINK-1541,46052,53.1586,0.0002766,15.82247426,322.2327145208892,325.94038458850355,1 46052U 20055AB  26154.00002315  .00123573  00000+0  58235-3 0  9994,2 46052  53.1586  63.0335 0002766 194.1499  48.5054 15.82247426  5995
STARLINK-1543,46053,53.16,0.0001246,15.3170918,469.85926359607856,471.56599692393866,1 46053U 20055AC  26153.09049377  .00008108  00000+0  27268-3 0  9990,2 46053  53.1600  81.4306 0001246 103.0831 257.0310 15.31709180322006
STARLINK-1548,46054,53.159,0.000148,15.31698248,469.7315832832164,471.7588524197008,1 46054U 20055AD  26153.03923755  .00000358  00000+0  23321-4 0  9992,2 46054  53.1590  81.7436 0001480 106.5087 253.6077 15.31698248321994
STARLINK-1554,46055,53.1596,0.0001053,15.31698787,470.0224239895633,471.46479824626476,1 46055U 20055AE  26153.02058497  .00001719  00000+0  67149-4 0  9992,2 46055  53.1596  81.7750 0001053  83.9914 276.1207 15.31698787321996
